*******************************************************************************
 Revised: Jan 26, 2022             Mimas / (Saturn)                         601
                        http://ssd.jpl.nasa.gov/?sat_phys_par
                         http://ssd.jpl.nasa.gov/?sat_elem

 SATELLITE PHYSICAL PROPERTIES:
  Mean Radius (km)        = 198.8   +- 1.5   Density (g/cm^3)  = 1.152 +- 0.027
  Mass (10^19 kg)         =   3.75           Geometric Albedo  = 0.6 
  GM (km^3/s^2)           =   2.503489       V(1,0)            = +3.3

 SATELLITE ORBITAL DATA (mean elements referred to local Laplace plane):
  Semi-major axis, a (km) = 185.54(10^3)    Orbital period     = 0.9424218 d
  Eccentricity, e         = 0.0196          Rotational period  = Synchronous
  Inclination, i  (deg)   = 1.572
*******************************************************************************


*******************************************************************************
Ephemeris / WWW_USER Mon Nov 28 02:55:42 2022 Pasadena, USA      / Horizons
*******************************************************************************
Target body name: Mimas (601)                     {source: sat441l}
Center body name: Saturn (699)                    {source: sat441l}
Center-site name: (user defined site below)
*******************************************************************************
Start time      : A.D. 2022-Nov-28 00:00:00.0000 TDB
Stop  time      : A.D. 2022-Dec-28 00:00:00.0000 TDB
Step-size       : 1440 minutes
*******************************************************************************
Center geodetic : 360.000000,0.00000000,0.0000000 {W-lon(deg),Lat(deg),Alt(km)}
Center cylindric: 360.000000,60268.0000,0.0000000 {W-lon(deg),Dxy(km),Dz(km)}
Center pole/equ : IAU_SATURN                      {West-longitude positive}
Center radii    : 60268.0 x 60268.0 x 54364.0 km  {Equator, meridian, pole}    
Output units    : KM-S
Output type     : GEOMETRIC cartesian states
Output format   : 3 (position, velocity, LT, range, range-rate)
Reference frame : Ecliptic of J2000.0
*******************************************************************************
JDTDB
   X     Y     Z
   VX    VY    VZ
   LT    RG    RR
*******************************************************************************
$$SOE
2459937.500000000 = A.D. 2022-Dec-24 00:00:00.0000 TDB 
 X = 1.198611527909766E+05 Y =-1.017595521388310E+05 Z = 4.534861120959958E+04
 VX= 1.158310205364480E+01 VY= 4.246453842723116E+00 VZ=-3.699116629791662E+00
 LT= 5.458458074397530E-01 RG= 1.636404563013582E+05 RR= 4.818471787417895E+00
2459938.500000000 = A.D. 2022-Dec-25 00:00:00.0000 TDB 
 X = 2.192379954903800E+05 Y =-5.391724730186284E+04 Z = 8.583359044327608E+03
 VX= 7.864502411133445E+00 VY= 1.779878757925673E+01 VZ=-1.052522004797155E+01
 LT= 7.536337426058550E-01 RG= 2.259337121275485E+05 RR= 2.984036173801028E+00
2459939.500000000 = A.D. 2022-Dec-26 00:00:00.0000 TDB 
 X = 2.154623892354365E+05 Y = 8.345204229806874E+04 Z =-6.535874327257893E+04
 VX=-1.160258085041192E+01 VY= 1.907000695552133E+01 VZ=-9.318633577966487E+00
 LT= 8.009710213847985E-01 RG= 2.401250712877193E+05 RR=-1.246994255831426E+00
2459940.500000000 = A.D. 2022-Dec-27 00:00:00.0000 TDB 
 X = 9.121334132851567E+04 Y = 1.483931813100718E+05 Z =-8.954883432128064E+04
 VX=-1.770211915537815E+01 VY= 4.224502915331994E+00 VZ=-8.866993243176903E-01
 LT= 6.533038542084085E-01 RG= 1.958555682740124E+05 RR=-4.638005070863179E+00
2459941.500000000 = A.D. 2022-Dec-28 00:00:00.0000 TDB 
 X = 2.502137762931822E+04 Y = 1.108503096981492E+05 Z =-6.516621254300078E+04
 VX=-6.928479155761660E+00 VY=-1.322079577737532E+00 VZ= 1.102635849006933E+00
 LT= 4.369625449011370E-01 RG= 1.309980753898472E+05 RR=-2.990636503009702E+00
